{
    "links": {
        "self": "http://www.neowsapp.com/rest/v1/neo/3841530?api_key=iIulBulltgU6a56xZRHN4H3l9WmuAYTsLGpBGhQ2"
    },
    "id": "3841530",
    "neo_reference_id": "3841530",
    "name": "(2019 HP)",
    "designation": "2019 HP",
    "nasa_jpl_url": "http://ssd.jpl.nasa.gov/sbdb.cgi?sstr=3841530",
    "absolute_magnitude_h": 25.8,
    "estimated_diameter": {
        "kilometers": {
            "estimated_diameter_min": 0.0183888672,
            "estimated_diameter_max": 0.0411187571
        },
        "meters": {
            "estimated_diameter_min": 18.388867207,
            "estimated_diameter_max": 41.1187571041
        },
        "miles": {
            "estimated_diameter_min": 0.0114263088,
            "estimated_diameter_max": 0.0255500032
        },
        "feet": {
            "estimated_diameter_min": 60.3309310875,
            "estimated_diameter_max": 134.9040630575
        }
    },
    "is_potentially_hazardous_asteroid": false,
    "close_approach_data": [
        {
            "close_approach_date": "2019-05-03",
            "close_approach_date_full": "2019-May-03 15:22",
            "epoch_date_close_approach": 1556896920000,
            "relative_velocity": {
                "kilometers_per_second": "5.6502268864",
                "kilometers_per_hour": "20340.8167911115",
                "miles_per_hour": "12638.9925222326"
            },
            "miss_distance": {
                "astronomical": "0.0238558721",
                "lunar": "9.2799342469",
                "kilometers": "3568787.653152427",
                "miles": "2217541.8188884126"
            },
            "orbiting_body": "Earth"
        },
        {
            "close_approach_date": "2077-06-22",
            "close_approach_date_full": "2077-Jun-22 22:29",
            "epoch_date_close_approach": 3391626540000,
            "relative_velocity": {
                "kilometers_per_second": "15.878080052",
                "kilometers_per_hour": "57161.0881871302",
                "miles_per_hour": "35517.6772682754"
            },
            "miss_distance": {
                "astronomical": "0.3506818885",
                "lunar": "136.4152546265",
                "kilometers": "52461263.567177495",
                "miles": "32597917.595119631"
            },
            "orbiting_body": "Earth"
        }
    ],
    "orbital_data": {
        "orbit_id": "5",
        "orbit_determination_date": "2019-05-12 08:16:00",
        "first_observation_date": "2019-04-23",
        "last_observation_date": "2019-05-10",
        "data_arc_in_days": 17,
        "observations_used": 32,
        "orbit_uncertainty": "7",
        "minimum_orbit_intersection": ".0196717",
        "jupiter_tisserand_invariant": "4.094",
        "epoch_osculation": "2459000.5",
        "eccentricity": ".4005724786189259",
        "semi_major_axis": "1.708211665040278",
        "inclination": "3.612768595055031",
        "ascending_node_longitude": "28.25763447478664",
        "orbital_period": "815.4755639194727",
        "perihelion_distance": "1.023949084369332",
        "perihelion_argument": "189.98724881526",
        "aphelion_distance": "2.392474245711224",
        "perihelion_time": "2458603.562431989209",
        "mean_anomaly": "175.2321354634676",
        "mean_motion": ".4414601932027353",
        "equinox": "J2000",
        "orbit_class": {
            "orbit_class_type": "AMO",
            "orbit_class_description": "Near-Earth asteroid orbits similar to that of 1221 Amor",
            "orbit_class_range": "1.017 AU < q (perihelion) < 1.3 AU"
        }
    },
    "is_sentry_object": false
}